{
  "links" : {
    "next" : "https://api.nasa.gov/neo/rest/v1/neo/browse?page=18&size=20&api_key=jqAGvNAwUIBu4fl9FSOjdm3V4F7hIglRzI6pdX9d",
    "prev" : "https://api.nasa.gov/neo/rest/v1/neo/browse?page=16&size=20&api_key=jqAGvNAwUIBu4fl9FSOjdm3V4F7hIglRzI6pdX9d",
    "self" : "https://api.nasa.gov/neo/rest/v1/neo/browse?page=17&size=20&api_key=jqAGvNAwUIBu4fl9FSOjdm3V4F7hIglRzI6pdX9d"
  },
  "page" : {
    "size" : 20,
    "total_elements" : 20750,
    "total_pages" : 1038,
    "number" : 17
  },
  "near_earth_objects" : [ {
    "links" : {
      "self" : "https://api.nasa.gov/neo/rest/v1/neo/3252103?api_key=jqAGvNAwUIBu4fl9FSOjdm3V4F7hIglRzI6pdX9d"
    },
    "neo_reference_id" : "3252103",
    "name" : "(2004 RN111)",
    "designation" : "2004 RN111",
    "nasa_jpl_url" : "http://ssd.jpl.nasa.gov/sbdb.cgi?sstr=3252103",
    "absolute_magnitude_h" : 25.0,
    "estimated_diameter" : {
      "kilometers" : {
        "estimated_diameter_min" : 0.02658,
        "estimated_diameter_max" : 0.0594346868
      },
      "meters" : {
        "estimated_diameter_min" : 26.58,
        "estimated_diameter_max" : 59.4346868419
      },
      "miles" : {
        "estimated_diameter_min" : 0.0165160412,
        "estimated_diameter_max" : 0.0369309908
      },
      "feet" : {
        "estimated_diameter_min" : 87.2047272,
        "estimated_diameter_max" : 194.9956979785
      }
    },
    "is_potentially_hazardous_asteroid" : false,
    "close_approach_data" : [ {
      "close_approach_date" : "2004-09-09",
      "epoch_date_close_approach" : 1094713200000,
      "relative_velocity" : {
        "kilometers_per_second" : "9.6872807223",
        "kilometers_per_hour" : "34874.2106004305",
        "miles_per_hour" : "21669.4782478064"
      },
      "miss_distance" : {
        "astronomical" : "0.0379533668",
        "lunar" : "14.7638587952",
        "kilometers" : "5677742.5",
        "miles" : "3527985.75"
      },
      "orbiting_body" : "Earth"
    } ],
    "orbital_data" : {
      "orbit_id" : "10",
      "orbit_determination_date" : "2017-04-06 09:12:19",
      "first_observation_date" : "2004-09-12",
      "last_observation_date" : "2004-09-17",
      "data_arc_in_days" : 5,
      "observations_used" : 46,
      "orbit_uncertainty" : "8",
      "minimum_orbit_intersection" : ".0343782",
      "jupiter_tisserand_invariant" : "4.136",
      "epoch_osculation" : "2453263.5",
      "eccentricity" : ".393399699369248",
      "semi_major_axis" : "1.667373465070239",
      "inclination" : "12.60412458776053",
      "ascending_node_longitude" : "349.8467267501958",
      "orbital_period" : "786.4076969872118",
      "perihelion_distance" : "1.011429245175346",
      "perihelion_argument" : "331.3233545770497",
      "aphelion_distance" : "2.323317684965133",
      "perihelion_time" : "2453235.758405807525",
      "mean_anomaly" : "12.69948647190492",
      "mean_motion" : ".4577778185274478",
      "equinox" : "J2000",
      "orbit_class" : {
        "orbit_class_type" : "APO",
        "orbit_class_range" : "a (semi-major axis) > 1.0 AU; q (perihelion) < 1.017 AU",
        "orbit_class_description" : "Near-Earth asteroid orbits which cross the Earth’s orbit similar to that of 1862 Apollo"
      }
    },
    "is_sentry_object" : false
  }, {
    "links" : {
      "self" : "https://api.nasa.gov/neo/rest/v1/neo/3252345?api_key=jqAGvNAwUIBu4fl9FSOjdm3V4F7hIglRzI6pdX9d"
    },
    "neo_reference_id" : "3252345",
    "name" : "(2004 RV164)",
    "designation" : "2004 RV164",
    "nasa_jpl_url" : "http://ssd.jpl.nasa.gov/sbdb.cgi?sstr=3252345",
    "absolute_magnitude_h" : 24.3,
    "estimated_diameter" : {
      "kilometers" : {
        "estimated_diameter_min" : 0.0366906138,
        "estimated_diameter_max" : 0.0820427065
      },
      "meters" : {
        "estimated_diameter_min" : 36.6906137531,
        "estimated_diameter_max" : 82.0427064882
      },
      "miles" : {
        "estimated_diameter_min" : 0.0227984834,
        "estimated_diameter_max" : 0.0509789586
      },
      "feet" : {
        "estimated_diameter_min" : 120.3760332259,
        "estimated_diameter_max" : 269.1689931548
      }
    },
    "is_potentially_hazardous_asteroid" : false,
    "close_approach_data" : [ {
      "close_approach_date" : "2004-09-08",
      "epoch_date_close_approach" : 1094626800000,
      "relative_velocity" : {
        "kilometers_per_second" : "8.654126746",
        "kilometers_per_hour" : "31154.8562855442",
        "miles_per_hour" : "19358.4161180928"
      },
      "miss_distance" : {
        "astronomical" : "0.0288408997",
        "lunar" : "11.2191095352",
        "kilometers" : "4314537",
        "miles" : "2680929"
      },
      "orbiting_body" : "Earth"
    } ],
    "orbital_data" : {
      "orbit_id" : "13",
      "orbit_determination_date" : "2017-04-06 09:12:18",
      "first_observation_date" : "2004-09-13",
      "last_observation_date" : "2004-10-08",
      "data_arc_in_days" : 25,
      "observations_used" : 83,
      "orbit_uncertainty" : "7",
      "minimum_orbit_intersection" : ".00376831",
      "jupiter_tisserand_invariant" : "3.273",
      "epoch_osculation" : "2458600.5",
      "eccentricity" : ".5800398741516885",
      "semi_major_axis" : "2.400585404128951",
      "inclination" : "2.563265114850066",
      "ascending_node_longitude" : "326.1684930556105",
      "orbital_period" : "1358.545438741411",
      "perihelion_distance" : "1.008150148427614",
      "perihelion_argument" : "2.711404754154286",
      "aphelion_distance" : "3.793020659830288",
      "perihelion_time" : "2458678.336880169138",
      "mean_anomaly" : "339.3740598865436",
      "mean_motion" : ".2649892964445213",
      "equinox" : "J2000",
      "orbit_class" : {
        "orbit_class_type" : "APO",
        "orbit_class_range" : "a (semi-major axis) > 1.0 AU; q (perihelion) < 1.017 AU",
        "orbit_class_description" : "Near-Earth asteroid orbits which cross the Earth’s orbit similar to that of 1862 Apollo"
      }
    },
    "is_sentry_object" : false
  }, {
    "links" : {
      "self" : "https://api.nasa.gov/neo/rest/v1/neo/3252572?api_key=jqAGvNAwUIBu4fl9FSOjdm3V4F7hIglRzI6pdX9d"
    },
    "neo_reference_id" : "3252572",
    "name" : "(2004 RN251)",
    "designation" : "2004 RN251",
    "nasa_jpl_url" : "http://ssd.jpl.nasa.gov/sbdb.cgi?sstr=3252572",
    "absolute_magnitude_h" : 26.1,
    "estimated_diameter" : {
      "kilometers" : {
        "estimated_diameter_min" : 0.0160160338,
        "estimated_diameter_max" : 0.0358129403
      },
      "meters" : {
        "estimated_diameter_min" : 16.0160337979,
        "estimated_diameter_max" : 35.8129403019
      },
      "miles" : {
        "estimated_diameter_min" : 0.0099518989,
        "estimated_diameter_max" : 0.0222531225
      },
      "feet" : {
        "estimated_diameter_min" : 52.5460443254,
        "estimated_diameter_max" : 117.4965270602
      }
    },
    "is_potentially_hazardous_asteroid" : false,
    "close_approach_data" : [ {
      "close_approach_date" : "2004-09-18",
      "epoch_date_close_approach" : 1095490800000,
      "relative_velocity" : {
        "kilometers_per_second" : "13.7459812262",
        "kilometers_per_hour" : "49485.5324142268",
        "miles_per_hour" : "30748.3854048288"
      },
      "miss_distance" : {
        "astronomical" : "0.0108740292",
        "lunar" : "4.2299971581",
        "kilometers" : "1626731.625",
        "miles" : "1010804.1875"
      },
      "orbiting_body" : "Earth"
    } ],
    "orbital_data" : {
      "orbit_id" : "9",
      "orbit_determination_date" : "2017-04-06 09:12:16",
      "first_observation_date" : "2004-09-15",
      "last_observation_date" : "2004-09-17",
      "data_arc_in_days" : 2,
      "observations_used" : 27,
      "orbit_uncertainty" : "8",
      "minimum_orbit_intersection" : ".00447683",
      "jupiter_tisserand_invariant" : "4.089",
      "epoch_osculation" : "2453264.5",
      "eccentricity" : ".5290329726104982",
      "semi_major_axis" : "1.661134183959391",
      "inclination" : "4.361193780795596",
      "ascending_node_longitude" : "179.8331111549846",
      "orbital_period" : "781.99774402305",
      "perihelion_distance" : ".7823394287144401",
      "perihelion_argument" : "245.4278559533575",
      "aphelion_distance" : "2.539928939204342",
      "perihelion_time" : "2453313.720920287438",
      "mean_anomaly" : "337.3406874394316",
      "mean_motion" : ".4603593843480305",
      "equinox" : "J2000",
      "orbit_class" : {
        "orbit_class_type" : "APO",
        "orbit_class_range" : "a (semi-major axis) > 1.0 AU; q (perihelion) < 1.017 AU",
        "orbit_class_description" : "Near-Earth asteroid orbits which cross the Earth’s orbit similar to that of 1862 Apollo"
      }
    },
    "is_sentry_object" : false
  } ]
}